<?xml version="1.0" ?>
<gpx xmlns="http://www.topografix.com/GPX/1/1">
 <trk>
  <name>RCRC Race For Recreation</name>
  <trkseg>
   <trkpt lat="34.109319" lon="-81.21216"/>
   <trkpt lat="34.109327" lon="-81.211976"/>
   <trkpt lat="34.109309" lon="-81.211785"/>
   <trkpt lat="34.109073" lon="-81.210803"/>
   <trkpt lat="34.108776" lon="-81.209573"/>
   <trkpt lat="34.108652" lon="-81.209074"/>
   <trkpt lat="34.108496" lon="-81.208806"/>
   <trkpt lat="34.108364" lon="-81.208609"/>
   <trkpt lat="34.108291" lon="-81.2085"/>
   <trkpt lat="34.108057" lon="-81.208152"/>
   <trkpt lat="34.107723" lon="-81.207663"/>
   <trkpt lat="34.107595" lon="-81.207508"/>
   <trkpt lat="34.107506" lon="-81.207379"/>
   <trkpt lat="34.107395" lon="-81.207218"/>
   <trkpt lat="34.107223" lon="-81.206921"/>
   <trkpt lat="34.107182" lon="-81.206839"/>
   <trkpt lat="34.107153" lon="-81.20675"/>
   <trkpt lat="34.107012" lon="-81.205931"/>
   <trkpt lat="34.107016" lon="-81.205833"/>
   <trkpt lat="34.107045" lon="-81.205718"/>
   <trkpt lat="34.107202" lon="-81.205212"/>
   <trkpt lat="34.107337" lon="-81.20474"/>
   <trkpt lat="34.107337" lon="-81.20445"/>
   <trkpt lat="34.107271" lon="-81.204032"/>
   <trkpt lat="34.107053" lon="-81.201975"/>
   <trkpt lat="34.106893" lon="-81.200808"/>
   <trkpt lat="34.106618" lon="-81.200352"/>
   <trkpt lat="34.1058" lon="-81.199574"/>
   <trkpt lat="34.105416" lon="-81.199244"/>
   <trkpt lat="34.10467" lon="-81.198547"/>
   <trkpt lat="34.104252" lon="-81.198102"/>
   <trkpt lat="34.103986" lon="-81.198"/>
   <trkpt lat="34.103329" lon="-81.197849"/>
   <trkpt lat="34.103329" lon="-81.197849"/>
   <trkpt lat="34.10324" lon="-81.197828"/>
   <trkpt lat="34.102743" lon="-81.197702"/>
   <trkpt lat="34.101877" lon="-81.19745"/>
   <trkpt lat="34.101744" lon="-81.197427"/>
   <trkpt lat="34.101606" lon="-81.197424"/>
   <trkpt lat="34.098645" lon="-81.197566"/>
   <trkpt lat="34.098219" lon="-81.197684"/>
   <trkpt lat="34.098219" lon="-81.197684"/>
   <trkpt lat="34.097712" lon="-81.197824"/>
   <trkpt lat="34.097921" lon="-81.199116"/>
   <trkpt lat="34.097761" lon="-81.199873"/>
   <trkpt lat="34.097461" lon="-81.200822"/>
   <trkpt lat="34.097243" lon="-81.201637"/>
   <trkpt lat="34.097158" lon="-81.201959"/>
   <trkpt lat="34.097043" lon="-81.202643"/>
   <trkpt lat="34.097026" lon="-81.202855"/>
   <trkpt lat="34.097026" lon="-81.202855"/>
   <trkpt lat="34.09699" lon="-81.203317"/>
   <trkpt lat="34.096968" lon="-81.203686"/>
   <trkpt lat="34.096963" lon="-81.203828"/>
   <trkpt lat="34.096979" lon="-81.204107"/>
   <trkpt lat="34.097" lon="-81.204269"/>
   <trkpt lat="34.097048" lon="-81.204445"/>
   <trkpt lat="34.097095" lon="-81.2046"/>
   <trkpt lat="34.097161" lon="-81.204784"/>
   <trkpt lat="34.097238" lon="-81.204952"/>
   <trkpt lat="34.09732" lon="-81.205119"/>
   <trkpt lat="34.097389" lon="-81.205245"/>
   <trkpt lat="34.097455" lon="-81.205347"/>
   <trkpt lat="34.097565" lon="-81.205483"/>
   <trkpt lat="34.097664" lon="-81.205594"/>
   <trkpt lat="34.098216" lon="-81.206148"/>
   <trkpt lat="34.098966" lon="-81.207034"/>
   <trkpt lat="34.099531" lon="-81.207211"/>
   <trkpt lat="34.100077" lon="-81.20735"/>
   <trkpt lat="34.100721" lon="-81.207366"/>
   <trkpt lat="34.101001" lon="-81.207318"/>
   <trkpt lat="34.101738" lon="-81.207082"/>
   <trkpt lat="34.102056" lon="-81.206891"/>
   <trkpt lat="34.102056" lon="-81.206891"/>
   <trkpt lat="34.102085" lon="-81.206873"/>
   <trkpt lat="34.102618" lon="-81.206647"/>
   <trkpt lat="34.10308" lon="-81.20647"/>
   <trkpt lat="34.103475" lon="-81.206299"/>
   <trkpt lat="34.103863" lon="-81.206061"/>
   <trkpt lat="34.104013" lon="-81.205921"/>
   <trkpt lat="34.104183" lon="-81.205707"/>
   <trkpt lat="34.104285" lon="-81.205516"/>
   <trkpt lat="34.104378" lon="-81.205284"/>
   <trkpt lat="34.10452" lon="-81.204861"/>
   <trkpt lat="34.104728" lon="-81.204095"/>
   <trkpt lat="34.105191" lon="-81.204295"/>
   <trkpt lat="34.10527" lon="-81.204313"/>
   <trkpt lat="34.105336" lon="-81.204313"/>
   <trkpt lat="34.105431" lon="-81.204304"/>
   <trkpt lat="34.105577" lon="-81.20428"/>
   <trkpt lat="34.105577" lon="-81.20428"/>
   <trkpt lat="34.106404" lon="-81.204141"/>
   <trkpt lat="34.107271" lon="-81.204032"/>
   <trkpt lat="34.107337" lon="-81.20445"/>
   <trkpt lat="34.107337" lon="-81.204584"/>
   <trkpt lat="34.107337" lon="-81.204584"/>
   <trkpt lat="34.107337" lon="-81.20474"/>
   <trkpt lat="34.107202" lon="-81.205212"/>
   <trkpt lat="34.107045" lon="-81.205718"/>
   <trkpt lat="34.107016" lon="-81.205833"/>
   <trkpt lat="34.107012" lon="-81.205931"/>
   <trkpt lat="34.107153" lon="-81.20675"/>
   <trkpt lat="34.107182" lon="-81.206839"/>
   <trkpt lat="34.107223" lon="-81.206921"/>
   <trkpt lat="34.107395" lon="-81.207218"/>
   <trkpt lat="34.107506" lon="-81.207379"/>
   <trkpt lat="34.107595" lon="-81.207508"/>
   <trkpt lat="34.107723" lon="-81.207663"/>
   <trkpt lat="34.108057" lon="-81.208152"/>
   <trkpt lat="34.108291" lon="-81.2085"/>
   <trkpt lat="34.108364" lon="-81.208609"/>
   <trkpt lat="34.108496" lon="-81.208806"/>
   <trkpt lat="34.108652" lon="-81.209074"/>
   <trkpt lat="34.108776" lon="-81.209573"/>
   <trkpt lat="34.109073" lon="-81.210803"/>
   <trkpt lat="34.109309" lon="-81.211785"/>
   <trkpt lat="34.109327" lon="-81.211976"/>
   <trkpt lat="34.109319" lon="-81.21216"/>
  </trkseg>
 </trk>
</gpx>
