<?xml version="1.0" ?>
<gpx xmlns="http://www.topografix.com/GPX/1/1">
 <trk>
  <name>Santa Run</name>
  <trkseg>
   <trkpt lat="33.998429" lon="-81.008127"/>
   <trkpt lat="33.998419" lon="-81.007974"/>
   <trkpt lat="33.998411" lon="-81.007841"/>
   <trkpt lat="33.998402" lon="-81.00771"/>
   <trkpt lat="33.998392" lon="-81.007545"/>
   <trkpt lat="33.998384" lon="-81.007429"/>
   <trkpt lat="33.998373" lon="-81.007262"/>
   <trkpt lat="33.998365" lon="-81.007136"/>
   <trkpt lat="33.998355" lon="-81.006983"/>
   <trkpt lat="33.99835" lon="-81.006894"/>
   <trkpt lat="33.998336" lon="-81.006679"/>
   <trkpt lat="33.998332" lon="-81.006617"/>
   <trkpt lat="33.998328" lon="-81.006556"/>
   <trkpt lat="33.99832" lon="-81.006431"/>
   <trkpt lat="33.998309" lon="-81.006266"/>
   <trkpt lat="33.998298" lon="-81.006081"/>
   <trkpt lat="33.998292" lon="-81.006001"/>
   <trkpt lat="33.99828" lon="-81.005809"/>
   <trkpt lat="33.998275" lon="-81.005725"/>
   <trkpt lat="33.998263" lon="-81.005545"/>
   <trkpt lat="33.998256" lon="-81.005429"/>
   <trkpt lat="33.998217" lon="-81.004823"/>
   <trkpt lat="33.998209" lon="-81.004697"/>
   <trkpt lat="33.998198" lon="-81.004524"/>
   <trkpt lat="33.998179" lon="-81.004234"/>
   <trkpt lat="33.998178" lon="-81.004209"/>
   <trkpt lat="33.998156" lon="-81.003871"/>
   <trkpt lat="33.998138" lon="-81.003598"/>
   <trkpt lat="33.998127" lon="-81.003415"/>
   <trkpt lat="33.99812" lon="-81.003309"/>
   <trkpt lat="33.998116" lon="-81.00325"/>
   <trkpt lat="33.998065" lon="-81.002467"/>
   <trkpt lat="33.998038" lon="-81.002056"/>
   <trkpt lat="33.998035" lon="-81.002013"/>
   <trkpt lat="33.998023" lon="-81.001828"/>
   <trkpt lat="33.998009" lon="-81.001614"/>
   <trkpt lat="33.998002" lon="-81.001508"/>
   <trkpt lat="33.997988" lon="-81.001303"/>
   <trkpt lat="33.997983" lon="-81.001226"/>
   <trkpt lat="33.997979" lon="-81.001157"/>
   <trkpt lat="33.997975" lon="-81.00109"/>
   <trkpt lat="33.997948" lon="-81.000658"/>
   <trkpt lat="33.997939" lon="-81.000506"/>
   <trkpt lat="33.997928" lon="-81.000333"/>
   <trkpt lat="33.997917" lon="-81.00016"/>
   <trkpt lat="33.997907" lon="-80.999992"/>
   <trkpt lat="33.997899" lon="-80.999865"/>
   <trkpt lat="33.997896" lon="-80.999829"/>
   <trkpt lat="33.997824" lon="-80.998948"/>
   <trkpt lat="33.997819" lon="-80.99887"/>
   <trkpt lat="33.997793" lon="-80.998462"/>
   <trkpt lat="33.997775" lon="-80.998182"/>
   <trkpt lat="33.997762" lon="-80.997978"/>
   <trkpt lat="33.997744" lon="-80.997699"/>
   <trkpt lat="33.997738" lon="-80.997613"/>
   <trkpt lat="33.997723" lon="-80.997371"/>
   <trkpt lat="33.99766" lon="-80.996448"/>
   <trkpt lat="33.997631" lon="-80.996032"/>
   <trkpt lat="33.997623" lon="-80.995892"/>
   <trkpt lat="33.997592" lon="-80.99544"/>
   <trkpt lat="33.997571" lon="-80.995132"/>
   <trkpt lat="33.99756" lon="-80.994979"/>
   <trkpt lat="33.997535" lon="-80.994622"/>
   <trkpt lat="33.997532" lon="-80.994566"/>
   <trkpt lat="33.997526" lon="-80.994492"/>
   <trkpt lat="33.997499" lon="-80.994061"/>
   <trkpt lat="33.997462" lon="-80.993568"/>
   <trkpt lat="33.997461" lon="-80.993537"/>
   <trkpt lat="33.99745" lon="-80.993117"/>
   <trkpt lat="33.99745" lon="-80.993117"/>
   <trkpt lat="33.99745" lon="-80.993117"/>
   <trkpt lat="33.997439" lon="-80.993056"/>
   <trkpt lat="33.99761" lon="-80.992959"/>
   <trkpt lat="33.997851" lon="-80.992826"/>
   <trkpt lat="33.998065" lon="-80.992715"/>
   <trkpt lat="33.998082" lon="-80.992765"/>
   <trkpt lat="33.998094" lon="-80.992804"/>
   <trkpt lat="33.998167" lon="-80.992774"/>
   <trkpt lat="33.99837" lon="-80.992692"/>
   <trkpt lat="33.998411" lon="-80.992676"/>
   <trkpt lat="33.998683" lon="-80.992578"/>
   <trkpt lat="33.998878" lon="-80.992525"/>
   <trkpt lat="33.99905" lon="-80.99249"/>
   <trkpt lat="33.999204" lon="-80.992461"/>
   <trkpt lat="33.999309" lon="-80.992453"/>
   <trkpt lat="33.99930896" lon="-80.99245277"/>
   <trkpt lat="33.999309" lon="-80.992453"/>
   <trkpt lat="33.999523" lon="-80.992436"/>
   <trkpt lat="33.999856" lon="-80.992424"/>
   <trkpt lat="34.000246" lon="-80.992397"/>
   <trkpt lat="34.000465" lon="-80.992371"/>
   <trkpt lat="34.000671" lon="-80.992327"/>
   <trkpt lat="34.000959" lon="-80.992262"/>
   <trkpt lat="34.001125" lon="-80.992215"/>
   <trkpt lat="34.001491" lon="-80.99209"/>
   <trkpt lat="34.001874" lon="-80.991943"/>
   <trkpt lat="34.001941" lon="-80.991896"/>
   <trkpt lat="34.001946" lon="-80.991786"/>
   <trkpt lat="34.001944" lon="-80.991682"/>
   <trkpt lat="34.001943" lon="-80.991331"/>
   <trkpt lat="34.001938" lon="-80.991056"/>
   <trkpt lat="34.001929" lon="-80.990798"/>
   <trkpt lat="34.001916" lon="-80.990561"/>
   <trkpt lat="34.001916" lon="-80.990561"/>
   <trkpt lat="34.001916" lon="-80.990561"/>
   <trkpt lat="34.001908" lon="-80.990413"/>
   <trkpt lat="34.001817" lon="-80.989307"/>
   <trkpt lat="34.00181883" lon="-80.98932921"/>
   <trkpt lat="34.00181883" lon="-80.98932921"/>
   <trkpt lat="34.001817" lon="-80.989307"/>
   <trkpt lat="34.001742" lon="-80.988282"/>
   <trkpt lat="34.001691" lon="-80.98766"/>
   <trkpt lat="34.001645" lon="-80.987661"/>
   <trkpt lat="34.001384" lon="-80.987665"/>
   <trkpt lat="34.001211" lon="-80.987698"/>
   <trkpt lat="34.000864" lon="-80.987784"/>
   <trkpt lat="34.000499" lon="-80.987792"/>
   <trkpt lat="34.00024" lon="-80.987747"/>
   <trkpt lat="34.000049" lon="-80.987678"/>
   <trkpt lat="33.999966" lon="-80.987648"/>
   <trkpt lat="33.999845" lon="-80.987642"/>
   <trkpt lat="33.999845" lon="-80.987642"/>
   <trkpt lat="33.999845" lon="-80.987642"/>
   <trkpt lat="33.999746" lon="-80.987637"/>
   <trkpt lat="33.999683" lon="-80.987643"/>
   <trkpt lat="33.999507" lon="-80.98766"/>
   <trkpt lat="33.999277" lon="-80.987741"/>
   <trkpt lat="33.999031" lon="-80.987947"/>
   <trkpt lat="33.998781" lon="-80.988387"/>
   <trkpt lat="33.998756" lon="-80.988569"/>
   <trkpt lat="33.998756" lon="-80.988569"/>
   <trkpt lat="33.998743" lon="-80.988664"/>
   <trkpt lat="33.998805" lon="-80.988914"/>
   <trkpt lat="33.99892" lon="-80.989158"/>
   <trkpt lat="33.998946" lon="-80.989193"/>
   <trkpt lat="33.99915" lon="-80.989415"/>
   <trkpt lat="33.999625" lon="-80.989561"/>
   <trkpt lat="34.000144" lon="-80.989774"/>
   <trkpt lat="34.000375" lon="-80.989787"/>
   <trkpt lat="34.000483" lon="-80.989794"/>
   <trkpt lat="34.000543" lon="-80.989781"/>
   <trkpt lat="34.000794" lon="-80.989727"/>
   <trkpt lat="34.001057" lon="-80.989625"/>
   <trkpt lat="34.001273" lon="-80.989542"/>
   <trkpt lat="34.001776" lon="-80.989325"/>
   <trkpt lat="34.001817" lon="-80.989307"/>
   <trkpt lat="34.001817" lon="-80.989307"/>
   <trkpt lat="34.001908" lon="-80.990413"/>
   <trkpt lat="34.001929" lon="-80.990798"/>
   <trkpt lat="34.001938" lon="-80.991056"/>
   <trkpt lat="34.001943" lon="-80.991331"/>
   <trkpt lat="34.001944" lon="-80.991682"/>
   <trkpt lat="34.001946" lon="-80.991786"/>
   <trkpt lat="34.001884" lon="-80.99181"/>
   <trkpt lat="34.001479" lon="-80.991967"/>
   <trkpt lat="34.001291" lon="-80.992035"/>
   <trkpt lat="34.001078" lon="-80.992101"/>
   <trkpt lat="34.000864" lon="-80.992163"/>
   <trkpt lat="34.000673" lon="-80.992207"/>
   <trkpt lat="34.000497" lon="-80.992239"/>
   <trkpt lat="34.000396" lon="-80.992259"/>
   <trkpt lat="34.000277" lon="-80.992276"/>
   <trkpt lat="34.000063" lon="-80.992299"/>
   <trkpt lat="33.999893" lon="-80.992309"/>
   <trkpt lat="33.999601" lon="-80.99232"/>
   <trkpt lat="33.999416" lon="-80.99233"/>
   <trkpt lat="33.998951" lon="-80.992391"/>
   <trkpt lat="33.998707" lon="-80.99245"/>
   <trkpt lat="33.998645" lon="-80.992471"/>
   <trkpt lat="33.998645" lon="-80.992471"/>
   <trkpt lat="33.998559" lon="-80.9925"/>
   <trkpt lat="33.998465" lon="-80.992536"/>
   <trkpt lat="33.998419" lon="-80.992554"/>
   <trkpt lat="33.998342" lon="-80.992586"/>
   <trkpt lat="33.998275" lon="-80.992614"/>
   <trkpt lat="33.998065" lon="-80.992715"/>
   <trkpt lat="33.997851" lon="-80.992826"/>
   <trkpt lat="33.99761" lon="-80.992959"/>
   <trkpt lat="33.997538" lon="-80.993"/>
   <trkpt lat="33.997538" lon="-80.993"/>
   <trkpt lat="33.997439" lon="-80.993056"/>
   <trkpt lat="33.99745" lon="-80.993117"/>
   <trkpt lat="33.997461" lon="-80.993537"/>
   <trkpt lat="33.997462" lon="-80.993568"/>
   <trkpt lat="33.997487" lon="-80.993904"/>
   <trkpt lat="33.997487" lon="-80.993904"/>
   <trkpt lat="33.997499" lon="-80.994061"/>
   <trkpt lat="33.997526" lon="-80.994492"/>
   <trkpt lat="33.997532" lon="-80.994566"/>
   <trkpt lat="33.997535" lon="-80.994622"/>
   <trkpt lat="33.99756" lon="-80.994979"/>
   <trkpt lat="33.997571" lon="-80.995132"/>
   <trkpt lat="33.997592" lon="-80.99544"/>
   <trkpt lat="33.997623" lon="-80.995892"/>
   <trkpt lat="33.997631" lon="-80.996032"/>
   <trkpt lat="33.99766" lon="-80.996448"/>
   <trkpt lat="33.997723" lon="-80.997371"/>
   <trkpt lat="33.997738" lon="-80.997613"/>
   <trkpt lat="33.997744" lon="-80.997699"/>
   <trkpt lat="33.99775" lon="-80.997787"/>
   <trkpt lat="33.99775" lon="-80.997787"/>
   <trkpt lat="33.997762" lon="-80.997978"/>
   <trkpt lat="33.997775" lon="-80.998182"/>
   <trkpt lat="33.997793" lon="-80.998462"/>
   <trkpt lat="33.997819" lon="-80.99887"/>
   <trkpt lat="33.997824" lon="-80.998948"/>
   <trkpt lat="33.997844" lon="-80.999192"/>
   <trkpt lat="33.997844" lon="-80.999192"/>
   <trkpt lat="33.997896" lon="-80.999829"/>
   <trkpt lat="33.997899" lon="-80.999865"/>
   <trkpt lat="33.997907" lon="-80.999992"/>
   <trkpt lat="33.997917" lon="-81.00016"/>
   <trkpt lat="33.997928" lon="-81.000333"/>
   <trkpt lat="33.997939" lon="-81.000506"/>
   <trkpt lat="33.997948" lon="-81.000658"/>
   <trkpt lat="33.997975" lon="-81.00109"/>
   <trkpt lat="33.997979" lon="-81.001157"/>
   <trkpt lat="33.997983" lon="-81.001226"/>
   <trkpt lat="33.997988" lon="-81.001303"/>
   <trkpt lat="33.998002" lon="-81.001508"/>
   <trkpt lat="33.998009" lon="-81.001614"/>
   <trkpt lat="33.998023" lon="-81.001828"/>
   <trkpt lat="33.998035" lon="-81.002013"/>
   <trkpt lat="33.998038" lon="-81.002056"/>
   <trkpt lat="33.998065" lon="-81.002467"/>
   <trkpt lat="33.998116" lon="-81.00325"/>
   <trkpt lat="33.99812" lon="-81.003309"/>
   <trkpt lat="33.998127" lon="-81.003415"/>
   <trkpt lat="33.998138" lon="-81.003598"/>
   <trkpt lat="33.998156" lon="-81.003871"/>
   <trkpt lat="33.998178" lon="-81.004209"/>
   <trkpt lat="33.998179" lon="-81.004234"/>
   <trkpt lat="33.998179" lon="-81.004234"/>
   <trkpt lat="33.998198" lon="-81.004524"/>
   <trkpt lat="33.998209" lon="-81.004697"/>
   <trkpt lat="33.998217" lon="-81.004823"/>
   <trkpt lat="33.998256" lon="-81.005429"/>
   <trkpt lat="33.998263" lon="-81.005545"/>
   <trkpt lat="33.998275" lon="-81.005725"/>
   <trkpt lat="33.99828" lon="-81.005809"/>
   <trkpt lat="33.998292" lon="-81.006001"/>
   <trkpt lat="33.998298" lon="-81.006081"/>
   <trkpt lat="33.998309" lon="-81.006266"/>
   <trkpt lat="33.99832" lon="-81.006431"/>
   <trkpt lat="33.998328" lon="-81.006556"/>
   <trkpt lat="33.998332" lon="-81.006617"/>
   <trkpt lat="33.998336" lon="-81.006679"/>
   <trkpt lat="33.99835" lon="-81.006894"/>
   <trkpt lat="33.998355" lon="-81.006983"/>
   <trkpt lat="33.998365" lon="-81.007136"/>
   <trkpt lat="33.998373" lon="-81.007262"/>
   <trkpt lat="33.998384" lon="-81.007429"/>
   <trkpt lat="33.998392" lon="-81.007545"/>
   <trkpt lat="33.998402" lon="-81.00771"/>
   <trkpt lat="33.998411" lon="-81.007841"/>
   <trkpt lat="33.998419" lon="-81.007974"/>
   <trkpt lat="33.998436" lon="-81.008239"/>
  </trkseg>
 </trk>
</gpx>
